{
  "norad_id": 59135,
  "name": "VSP RF A1",
  "history": [
    {
      "epoch": "2026-03-25T21:53:23.208288Z",
      "apogee_km": 494.14200561734924,
      "perigee_km": 479.09446214468244,
      "latitude_deg": 5.091066702098522e-05,
      "longitude_deg": 68.84161378102762,
      "height_km": 496.9793346967467,
      "semi_major_axis_km": 6864.755233881016,
      "eccentricity": 0.001096,
      "inclination_deg": 97.5282,
      "raan_deg": 220.5571,
      "arg_perigee_deg": 165.0408,
      "mean_anomaly_deg": 195.1157,
      "mean_motion_rev_day": 15.26388821
    }
  ]
}