{"fetched_at":"2026-03-29T02:12:04Z","count":15717,"tles":[{"name":"VSP RF A1","line1":"1 59135U 24043AP  26084.91207417  .00000427  00000+0  19264-4 0  9995","line2":"2 59135  97.5282 220.5571 0010960 165.0408 195.1157 15.26388821114289","category":"Other"}]}